{
"type": "FeatureCollection",
"name": "utvonal_20250516_1921",
"crs": { "type": "name", "properties": { "name": "urn:ogc:def:crs:OGC:1.3:CRS84" } },
"features": [
{ "type": "Feature", "properties": { }, "geometry": { "type": "LineString", "coordinates": [ [ 19.049541, 47.4772251 ], [ 19.0503175, 47.4782593 ], [ 19.0510739, 47.477945 ], [ 19.0520708, 47.4776977 ], [ 19.0525791, 47.4775733 ], [ 19.0535732, 47.4773428 ], [ 19.0547103, 47.4774465 ], [ 19.0559462, 47.4775578 ], [ 19.0559007, 47.4784461 ] ] } }
]
}
