{
"type": "FeatureCollection",
"name": "budapest_park_to_ferenc_ter1",
"crs": { "type": "name", "properties": { "name": "urn:ogc:def:crs:OGC:1.3:CRS84" } },
"features": [
{ "type": "Feature", "properties": { }, "geometry": { "type": "LineString", "coordinates": [ [ 19.0789414, 47.4676298 ], [ 19.0770471, 47.4669009 ], [ 19.0763697, 47.4677058 ], [ 19.0757602, 47.4682743 ], [ 19.0752022, 47.4689673 ], [ 19.0747268, 47.4694418 ], [ 19.0745534, 47.4696782 ], [ 19.0735786, 47.4708368 ], [ 19.0719628, 47.4727432 ], [ 19.0710148, 47.473915 ], [ 19.0704471, 47.4745858 ], [ 19.0700234, 47.4750964 ], [ 19.0699059, 47.4752406 ], [ 19.0694258, 47.4759198 ], [ 19.0687786, 47.477638 ], [ 19.0709164, 47.4784094 ], [ 19.0727075, 47.4790928 ], [ 19.0728905, 47.4791682 ], [ 19.0738535, 47.4805994 ], [ 19.0741277, 47.4810173 ] ] } }
]
}
