{
"type": "FeatureCollection",
"name": "utvonal_20250516_2016",
"crs": { "type": "name", "properties": { "name": "urn:ogc:def:crs:OGC:1.3:CRS84" } },
"features": [
{ "type": "Feature", "properties": { }, "geometry": { "type": "LineString", "coordinates": [ [ 19.0614073, 47.489212 ], [ 19.0615975, 47.489442 ], [ 19.0617457, 47.4896605 ], [ 19.0615141, 47.4897973 ], [ 19.0602967, 47.4885736 ], [ 19.0588797, 47.4878372 ], [ 19.0571343, 47.4869615 ], [ 19.0568777, 47.4867962 ], [ 19.0529372, 47.4847544 ], [ 19.052737, 47.4845745 ], [ 19.0533823, 47.4840528 ], [ 19.0529826, 47.4832974 ], [ 19.052508, 47.482045 ], [ 19.0524827, 47.4819845 ], [ 19.051892, 47.4807599 ], [ 19.0512112, 47.4798329 ], [ 19.0510212, 47.4796312 ], [ 19.0495385, 47.4786887 ], [ 19.049635, 47.4785721 ], [ 19.0503175, 47.4782593 ], [ 19.0510739, 47.477945 ], [ 19.0507485, 47.4768751 ], [ 19.049541, 47.4772251 ] ] } }
]
}
