{
"type": "FeatureCollection",
"name": "utvonal_20250516_2100_3",
"crs": { "type": "name", "properties": { "name": "urn:ogc:def:crs:OGC:1.3:CRS84" } },
"features": [
{ "type": "Feature", "properties": { }, "geometry": { "type": "LineString", "coordinates": [ [ 19.0737741, 47.5503167 ], [ 19.0731534, 47.5484171 ], [ 19.0724155, 47.5465122 ], [ 19.0722752, 47.5461533 ], [ 19.0720828, 47.5456611 ], [ 19.0720231, 47.5454968 ], [ 19.0714498, 47.5440883 ], [ 19.0708227, 47.5424343 ], [ 19.0707449, 47.5421737 ], [ 19.0699639, 47.5400634 ], [ 19.0698395, 47.5397832 ], [ 19.069693, 47.5394551 ], [ 19.0691145, 47.5381081 ], [ 19.068436, 47.5366058 ], [ 19.0680913, 47.5357411 ], [ 19.0654335, 47.529576 ], [ 19.0654125, 47.5295303 ], [ 19.0650108, 47.5285939 ], [ 19.0644918, 47.5273761 ], [ 19.0640154, 47.5262407 ], [ 19.0636639, 47.5254056 ], [ 19.0634974, 47.5250334 ], [ 19.0632884, 47.5245619 ], [ 19.0636532, 47.5242646 ], [ 19.0646995, 47.5235626 ], [ 19.0660981, 47.5227246 ], [ 19.0672713, 47.5220238 ], [ 19.0690807, 47.5209397 ], [ 19.0692243, 47.52086 ], [ 19.0712404, 47.5195019 ], [ 19.0723516, 47.5185558 ], [ 19.0734247, 47.5176359 ], [ 19.0736601, 47.5174274 ], [ 19.0749911, 47.5162485 ], [ 19.0760862, 47.5152847 ], [ 19.0762138, 47.515177 ], [ 19.0764457, 47.5149821 ], [ 19.0771054, 47.5144353 ], [ 19.0776101, 47.5140282 ], [ 19.0780642, 47.5143059 ], [ 19.0785265, 47.5146065 ] ] } }
]
}
