{
"type": "FeatureCollection",
"name": "utvonal_20250516_2100_1",
"crs": { "type": "name", "properties": { "name": "urn:ogc:def:crs:OGC:1.3:CRS84" } },
"features": [
{ "type": "Feature", "properties": { }, "geometry": { "type": "LineString", "coordinates": [ [ 19.0614073, 47.489212 ], [ 19.0615975, 47.489442 ], [ 19.0620033, 47.4895393 ], [ 19.0636954, 47.4887082 ], [ 19.0646721, 47.4882368 ], [ 19.0633188, 47.4871278 ], [ 19.0639631, 47.4862767 ], [ 19.0641651, 47.4859815 ], [ 19.0645932, 47.4853941 ], [ 19.0648915, 47.4849849 ], [ 19.0631275, 47.4841946 ], [ 19.0618874, 47.4836087 ], [ 19.0626708, 47.4830716 ], [ 19.0633842, 47.4825742 ], [ 19.0638545, 47.4822417 ], [ 19.0644102, 47.4818367 ], [ 19.0657108, 47.4805832 ], [ 19.0659022, 47.4804033 ] ] } }
]
}
