{
"type": "FeatureCollection",
"name": "utvonal_20250516_2117",
"crs": { "type": "name", "properties": { "name": "urn:ogc:def:crs:OGC:1.3:CRS84" } },
"features": [
{ "type": "Feature", "properties": { }, "geometry": { "type": "LineString", "coordinates": [ [ 19.0614073, 47.489212 ], [ 19.0615975, 47.489442 ], [ 19.0620033, 47.4895393 ], [ 19.0636954, 47.4887082 ], [ 19.0641694, 47.4892094 ], [ 19.0665297, 47.4890897 ], [ 19.068736, 47.4893631 ], [ 19.0705379, 47.4894078 ], [ 19.0707518, 47.4894178 ], [ 19.0712241, 47.4894519 ], [ 19.0720336, 47.4895266 ], [ 19.0730511, 47.4896283 ], [ 19.0730993, 47.4896331 ], [ 19.07427, 47.4897278 ], [ 19.0761078, 47.4896071 ], [ 19.0782301, 47.4893878 ], [ 19.0787321, 47.4893382 ], [ 19.0793313, 47.4892775 ], [ 19.0799988, 47.4892055 ], [ 19.0804179, 47.4891559 ], [ 19.082643, 47.488888 ], [ 19.0845522, 47.4887042 ], [ 19.0847487, 47.4881675 ], [ 19.0861318, 47.488326 ], [ 19.0876816, 47.4884631 ], [ 19.0885795, 47.4872328 ], [ 19.0925292, 47.4872468 ], [ 19.0926264, 47.4865548 ], [ 19.0927245, 47.48588 ], [ 19.0929326, 47.4857101 ], [ 19.0954835, 47.4848544 ], [ 19.0966423, 47.4844554 ], [ 19.0993287, 47.483567 ], [ 19.10221, 47.4825707 ], [ 19.1028985, 47.4823719 ], [ 19.103664, 47.4821082 ], [ 19.103955, 47.4820171 ], [ 19.104483, 47.4818566 ], [ 19.1132007, 47.4788851 ], [ 19.1114601, 47.4771355 ] ] } }
]
}
