{
"type": "FeatureCollection",
"name": "utvonal_20250516_2120",
"crs": { "type": "name", "properties": { "name": "urn:ogc:def:crs:OGC:1.3:CRS84" } },
"features": [
{ "type": "Feature", "properties": { }, "geometry": { "type": "LineString", "coordinates": [ [ 19.0633265, 47.5052206 ], [ 19.0630408, 47.5050319 ], [ 19.0624671, 47.5046388 ], [ 19.0622207, 47.5044765 ], [ 19.0605224, 47.5033339 ], [ 19.0592687, 47.5025053 ], [ 19.0586232, 47.5020665 ], [ 19.0579188, 47.5016073 ], [ 19.0572694, 47.5011823 ], [ 19.0565852, 47.5007261 ], [ 19.0548448, 47.4995112 ], [ 19.0548215, 47.4991884 ], [ 19.0548258, 47.4990308 ], [ 19.0547926, 47.4984171 ], [ 19.0547039, 47.4979799 ], [ 19.0547061, 47.497892 ], [ 19.0547211, 47.4977094 ], [ 19.0551375, 47.4973322 ], [ 19.0572952, 47.4963542 ], [ 19.0582804, 47.4959011 ], [ 19.0598405, 47.4942845 ], [ 19.060609, 47.4929957 ], [ 19.0612749, 47.4917426 ], [ 19.0616208, 47.4900297 ], [ 19.0615141, 47.4897973 ], [ 19.0602967, 47.4885736 ], [ 19.0604131, 47.488498 ], [ 19.0614073, 47.489212 ] ] } },
{ "type": "Feature", "properties": { }, "geometry": { "type": "LineString", "coordinates": [ [ 19.0559007, 47.4784461 ], [ 19.0558617, 47.479233 ], [ 19.0537657, 47.4794677 ], [ 19.0538332, 47.4806427 ], [ 19.0538455, 47.4819243 ], [ 19.0526981, 47.4820673 ], [ 19.0537506, 47.483785 ], [ 19.0537926, 47.4840464 ], [ 19.0531372, 47.4845891 ], [ 19.057075, 47.4867638 ], [ 19.0577121, 47.4870794 ], [ 19.058501, 47.4875226 ], [ 19.0604131, 47.488498 ], [ 19.0614073, 47.489212 ] ] } },
{ "type": "Feature", "properties": { }, "geometry": { "type": "LineString", "coordinates": [ [ 19.0533823, 47.4840528 ], [ 19.0537506, 47.483785 ], [ 19.0539525, 47.483654 ], [ 19.0541136, 47.4835276 ], [ 19.0539805, 47.4832822 ], [ 19.0538455, 47.4819243 ], [ 19.0538332, 47.4806427 ], [ 19.0537657, 47.4794677 ] ] } }
]
}
