{
"type": "FeatureCollection",
"name": "utvonal_20250516_2115",
"crs": { "type": "name", "properties": { "name": "urn:ogc:def:crs:OGC:1.3:CRS84" } },
"features": [
{ "type": "Feature", "properties": { }, "geometry": { "type": "LineString", "coordinates": [ [ 19.057075, 47.4867638 ], [ 19.0577121, 47.4870794 ], [ 19.058501, 47.4875226 ], [ 19.0604131, 47.488498 ], [ 19.0614073, 47.489212 ], [ 19.0615975, 47.489442 ], [ 19.0617457, 47.4896605 ], [ 19.0615141, 47.4897973 ], [ 19.0608898, 47.4900546 ], [ 19.0606413, 47.4901466 ], [ 19.0591147, 47.4907427 ], [ 19.057757, 47.4916949 ], [ 19.0567982, 47.4921879 ], [ 19.0561929, 47.4927721 ], [ 19.0556788, 47.4932195 ], [ 19.0533859, 47.4923831 ], [ 19.0529317, 47.4921823 ], [ 19.046953, 47.4901015 ] ] } },
{ "type": "Feature", "properties": { }, "geometry": { "type": "LineString", "coordinates": [ [ 19.0614073, 47.489212 ], [ 19.0615975, 47.489442 ], [ 19.0617457, 47.4896605 ], [ 19.0615141, 47.4897973 ], [ 19.0602967, 47.4885736 ], [ 19.0588797, 47.4878372 ], [ 19.0571343, 47.4869615 ], [ 19.0568777, 47.4867962 ], [ 19.057075, 47.4867638 ], [ 19.0577121, 47.4870794 ], [ 19.0595698, 47.4855636 ], [ 19.0597305, 47.4854146 ], [ 19.0599926, 47.4850363 ], [ 19.0601557, 47.4846866 ], [ 19.060256, 47.4845854 ], [ 19.0605284, 47.4845378 ], [ 19.0606794, 47.4844552 ], [ 19.0618874, 47.4836087 ], [ 19.0626708, 47.4830716 ], [ 19.0633842, 47.4825742 ], [ 19.0638545, 47.4822417 ], [ 19.0644102, 47.4818367 ], [ 19.0657108, 47.4805832 ], [ 19.0659022, 47.4804033 ], [ 19.0666415, 47.4796973 ], [ 19.0676221, 47.4790881 ], [ 19.0679205, 47.4789778 ], [ 19.0682261, 47.4787746 ], [ 19.0685081, 47.478375 ], [ 19.068513, 47.4785817 ], [ 19.0684631, 47.4787031 ], [ 19.0683898, 47.4789808 ], [ 19.0682161, 47.479479 ], [ 19.0679686, 47.4796198 ] ] } }
]
}
