{
"type": "FeatureCollection",
"name": "utvonal_20250516_2100_2",
"crs": { "type": "name", "properties": { "name": "urn:ogc:def:crs:OGC:1.3:CRS84" } },
"features": [
{ "type": "Feature", "properties": { }, "geometry": { "type": "LineString", "coordinates": [ [ 19.046953, 47.4901015 ], [ 19.0529317, 47.4921823 ], [ 19.0518258, 47.491457 ], [ 19.0515807, 47.4912932 ], [ 19.0515681, 47.4911302 ], [ 19.0516347, 47.4910448 ], [ 19.0518269, 47.4908112 ], [ 19.0519863, 47.4907052 ], [ 19.0542248, 47.4887823 ], [ 19.0553751, 47.4878989 ], [ 19.0563834, 47.487171 ], [ 19.0567109, 47.4869339 ], [ 19.0568777, 47.4867962 ], [ 19.057075, 47.4867638 ], [ 19.0577121, 47.4870794 ], [ 19.058501, 47.4875226 ], [ 19.0604131, 47.488498 ], [ 19.0614073, 47.489212 ] ] } }
]
}
