{
"type": "FeatureCollection",
"name": "utvonal_20250516_2124",
"crs": { "type": "name", "properties": { "name": "urn:ogc:def:crs:OGC:1.3:CRS84" } },
"features": [
{ "type": "Feature", "properties": { }, "geometry": { "type": "LineString", "coordinates": [ [ 19.0614073, 47.489212 ], [ 19.0615975, 47.489442 ], [ 19.0617457, 47.4896605 ], [ 19.0618122, 47.4898362 ], [ 19.0618671, 47.4901339 ], [ 19.0614135, 47.4918226 ], [ 19.0600748, 47.4943405 ], [ 19.0604638, 47.4944351 ], [ 19.0625812, 47.4949599 ] ] } },
{ "type": "Feature", "properties": { }, "geometry": { "type": "LineString", "coordinates": [ [ 19.0625812, 47.4949599 ], [ 19.0604638, 47.4944351 ], [ 19.0600748, 47.4943405 ], [ 19.0598405, 47.4942845 ], [ 19.060609, 47.4929957 ], [ 19.0599883, 47.4927504 ], [ 19.057757, 47.4916949 ], [ 19.0567982, 47.4921879 ], [ 19.0561929, 47.4927721 ], [ 19.0550163, 47.4922293 ], [ 19.0555786, 47.4916262 ], [ 19.0563202, 47.4908406 ], [ 19.0563964, 47.4907874 ], [ 19.0575074, 47.4893874 ], [ 19.0581975, 47.4886103 ], [ 19.0585296, 47.488227 ], [ 19.0588797, 47.4878372 ], [ 19.0571343, 47.4869615 ], [ 19.0568777, 47.4867962 ], [ 19.057075, 47.4867638 ] ] } }
]
}
