{
"type": "FeatureCollection",
"name": "utvonal_20250516_2112",
"crs": { "type": "name", "properties": { "name": "urn:ogc:def:crs:OGC:1.3:CRS84" } },
"features": [
{ "type": "Feature", "properties": { }, "geometry": { "type": "LineString", "coordinates": [ [ 19.0614073, 47.489212 ], [ 19.0615975, 47.489442 ], [ 19.0620033, 47.4895393 ], [ 19.0636954, 47.4887082 ], [ 19.0646721, 47.4882368 ], [ 19.0664422, 47.4873931 ], [ 19.0667645, 47.4872405 ], [ 19.0681398, 47.4865856 ], [ 19.0693159, 47.4860713 ], [ 19.0695994, 47.4859567 ], [ 19.0697972, 47.4856148 ], [ 19.0687845, 47.4831472 ], [ 19.0689837, 47.4830932 ], [ 19.0699928, 47.4827347 ], [ 19.0713249, 47.4822481 ], [ 19.0704618, 47.4806694 ], [ 19.0703266, 47.4805887 ], [ 19.0694487, 47.4801104 ], [ 19.0687891, 47.4797602 ], [ 19.0682161, 47.479479 ], [ 19.0679686, 47.4796198 ], [ 19.0680617, 47.4792141 ], [ 19.0681172, 47.4790158 ], [ 19.067865, 47.4791307 ], [ 19.0667928, 47.4797635 ], [ 19.0666564, 47.4798958 ], [ 19.0662211, 47.4803018 ], [ 19.0659288, 47.4805622 ], [ 19.0656822, 47.4807898 ], [ 19.0644102, 47.4818367 ], [ 19.0638545, 47.4822417 ], [ 19.0633842, 47.4825742 ], [ 19.0626708, 47.4830716 ], [ 19.0618874, 47.4836087 ], [ 19.0606794, 47.4844552 ], [ 19.0605284, 47.4845378 ], [ 19.0601557, 47.4846866 ], [ 19.0598839, 47.484706 ], [ 19.0589757, 47.4846355 ], [ 19.0553046, 47.4876217 ], [ 19.0553751, 47.4878989 ], [ 19.0563834, 47.487171 ], [ 19.0567109, 47.4869339 ], [ 19.0568777, 47.4867962 ], [ 19.057075, 47.4867638 ] ] } },
{ "type": "Feature", "properties": { }, "geometry": { "type": "LineString", "coordinates": [ [ 19.0544348, 47.4978419 ], [ 19.0547211, 47.4977094 ], [ 19.0551375, 47.4973322 ], [ 19.0572952, 47.4963542 ], [ 19.0582804, 47.4959011 ], [ 19.0598405, 47.4942845 ], [ 19.060609, 47.4929957 ], [ 19.0612749, 47.4917426 ], [ 19.0616208, 47.4900297 ], [ 19.0615141, 47.4897973 ], [ 19.0602967, 47.4885736 ], [ 19.0588797, 47.4878372 ], [ 19.0571343, 47.4869615 ], [ 19.0568777, 47.4867962 ], [ 19.057075, 47.4867638 ], [ 19.0577121, 47.4870794 ], [ 19.058501, 47.4875226 ], [ 19.0604131, 47.488498 ], [ 19.0614073, 47.489212 ], [ 19.0615975, 47.489442 ], [ 19.0617457, 47.4896605 ], [ 19.0615141, 47.4897973 ], [ 19.0608898, 47.4900546 ], [ 19.0606413, 47.4901466 ], [ 19.0591147, 47.4907427 ], [ 19.057757, 47.4916949 ], [ 19.0567982, 47.4921879 ], [ 19.0561929, 47.4927721 ], [ 19.0556788, 47.4932195 ], [ 19.0533859, 47.4923831 ], [ 19.0529317, 47.4921823 ], [ 19.046953, 47.4901015 ] ] } }
]
}
