{
"type": "FeatureCollection",
"name": "utvonal_20250516_2104",
"crs": { "type": "name", "properties": { "name": "urn:ogc:def:crs:OGC:1.3:CRS84" } },
"features": [
{ "type": "Feature", "properties": { }, "geometry": { "type": "LineString", "coordinates": [ [ 19.0614073, 47.489212 ], [ 19.0615975, 47.489442 ], [ 19.0617457, 47.4896605 ], [ 19.0618122, 47.4898362 ], [ 19.0618671, 47.4901339 ], [ 19.0614135, 47.4918226 ], [ 19.0600748, 47.4943405 ], [ 19.0599302, 47.4945478 ], [ 19.0590751, 47.4957461 ], [ 19.0587793, 47.4959979 ], [ 19.0581783, 47.496269 ], [ 19.0550622, 47.4977204 ], [ 19.0547926, 47.4984171 ], [ 19.0548258, 47.4990308 ], [ 19.0548215, 47.4991884 ], [ 19.0548448, 47.4995112 ], [ 19.0548675, 47.5004222 ], [ 19.0548849, 47.5010465 ], [ 19.0548916, 47.5013888 ], [ 19.0549004, 47.5023019 ], [ 19.0549076, 47.5026334 ], [ 19.0549121, 47.5028198 ], [ 19.0549404, 47.5035411 ], [ 19.0549485, 47.5037854 ], [ 19.0549736, 47.504741 ], [ 19.0550055, 47.5059516 ], [ 19.0550171, 47.5064442 ], [ 19.0550192, 47.5066136 ], [ 19.0550258, 47.5068087 ], [ 19.055036, 47.5070988 ], [ 19.0550482, 47.507862 ], [ 19.0550517, 47.508248 ], [ 19.0555187, 47.5101461 ], [ 19.0556695, 47.5103463 ], [ 19.0557078, 47.5103873 ], [ 19.0558421, 47.5105407 ], [ 19.0559978, 47.5107185 ], [ 19.0560107, 47.5107341 ], [ 19.0571672, 47.5124189 ], [ 19.0580139, 47.5135409 ], [ 19.0588174, 47.5146238 ], [ 19.0592659, 47.5152103 ], [ 19.0595925, 47.5157544 ], [ 19.0601503, 47.5172988 ], [ 19.0602954, 47.517662 ], [ 19.0603178, 47.5177191 ], [ 19.0605287, 47.5182478 ], [ 19.0607518, 47.518771 ], [ 19.0611047, 47.5195759 ], [ 19.0615454, 47.5204591 ], [ 19.0618813, 47.5212486 ], [ 19.0622069, 47.5220173 ], [ 19.0625897, 47.5229196 ], [ 19.0629297, 47.5237209 ], [ 19.0631329, 47.524198 ], [ 19.0632884, 47.5245619 ], [ 19.0634974, 47.5250334 ], [ 19.0636639, 47.5254056 ], [ 19.0640154, 47.5262407 ], [ 19.0644918, 47.5273761 ], [ 19.0650108, 47.5285939 ], [ 19.0654125, 47.5295303 ], [ 19.0654335, 47.529576 ], [ 19.0680913, 47.5357411 ], [ 19.068436, 47.5366058 ], [ 19.0691145, 47.5381081 ], [ 19.069693, 47.5394551 ], [ 19.0698395, 47.5397832 ], [ 19.0699639, 47.5400634 ], [ 19.0707449, 47.5421737 ], [ 19.0708227, 47.5424343 ], [ 19.0714498, 47.5440883 ], [ 19.0720231, 47.5454968 ], [ 19.0720828, 47.5456611 ], [ 19.0722752, 47.5461533 ], [ 19.0724155, 47.5465122 ], [ 19.0731534, 47.5484171 ], [ 19.0737741, 47.5503167 ], [ 19.0739564, 47.5507945 ], [ 19.0741794, 47.5513137 ], [ 19.0748048, 47.5528997 ], [ 19.0748721, 47.5530872 ], [ 19.0752498, 47.5537211 ], [ 19.0758082, 47.5550745 ], [ 19.0759419, 47.5553496 ], [ 19.0771763, 47.5580773 ], [ 19.0772414, 47.5583094 ], [ 19.0772078, 47.5599336 ], [ 19.0773339, 47.5601356 ], [ 19.0777609, 47.5606661 ], [ 19.0780068, 47.5609939 ], [ 19.0787442, 47.5613137 ], [ 19.0797839, 47.5611738 ], [ 19.0811064, 47.5609701 ], [ 19.0826212, 47.560692 ], [ 19.0863777, 47.5606742 ], [ 19.088618, 47.5605092 ] ] } },
{ "type": "Feature", "properties": { }, "geometry": { "type": "LineString", "coordinates": [ [ 19.0529372, 47.4847544 ], [ 19.052737, 47.4845745 ], [ 19.0533823, 47.4840528 ], [ 19.0537506, 47.483785 ], [ 19.0537926, 47.4840464 ], [ 19.0531372, 47.4845891 ], [ 19.057075, 47.4867638 ], [ 19.0577121, 47.4870794 ], [ 19.058501, 47.4875226 ], [ 19.0604131, 47.488498 ], [ 19.0614073, 47.489212 ], [ 19.0615975, 47.489442 ], [ 19.0620033, 47.4895393 ], [ 19.0636954, 47.4887082 ], [ 19.0641694, 47.4892094 ], [ 19.0665297, 47.4890897 ], [ 19.068736, 47.4893631 ], [ 19.0705379, 47.4894078 ], [ 19.0707518, 47.4894178 ], [ 19.0712241, 47.4894519 ], [ 19.0720336, 47.4895266 ], [ 19.0730511, 47.4896283 ], [ 19.0730993, 47.4896331 ], [ 19.07427, 47.4897278 ], [ 19.0761078, 47.4896071 ], [ 19.0782301, 47.4893878 ], [ 19.0787321, 47.4893382 ], [ 19.0793313, 47.4892775 ], [ 19.0799988, 47.4892055 ], [ 19.0804179, 47.4891559 ], [ 19.082643, 47.488888 ], [ 19.0845522, 47.4887042 ], [ 19.0847487, 47.4881675 ], [ 19.0861318, 47.488326 ], [ 19.0876816, 47.4884631 ], [ 19.0885795, 47.4872328 ], [ 19.0925292, 47.4872468 ], [ 19.0926264, 47.4865548 ], [ 19.0927245, 47.48588 ], [ 19.0929326, 47.4857101 ], [ 19.0954835, 47.4848544 ], [ 19.0966423, 47.4844554 ], [ 19.0993287, 47.483567 ], [ 19.10221, 47.4825707 ], [ 19.1028985, 47.4823719 ], [ 19.103664, 47.4821082 ], [ 19.103955, 47.4820171 ], [ 19.104483, 47.4818566 ], [ 19.1132007, 47.4788851 ], [ 19.1114601, 47.4771355 ] ] } }
]
}
