{
"type": "FeatureCollection",
"name": "utvonal_20250516_2050_1",
"crs": { "type": "name", "properties": { "name": "urn:ogc:def:crs:OGC:1.3:CRS84" } },
"features": [
{ "type": "Feature", "properties": { }, "geometry": { "type": "LineString", "coordinates": [ [ 19.0614073, 47.489212 ], [ 19.0615975, 47.489442 ], [ 19.0617457, 47.4896605 ], [ 19.0618122, 47.4898362 ], [ 19.0618671, 47.4901339 ], [ 19.0614135, 47.4918226 ], [ 19.0600748, 47.4943405 ], [ 19.0599302, 47.4945478 ], [ 19.0590751, 47.4957461 ], [ 19.0587793, 47.4959979 ], [ 19.0581783, 47.496269 ], [ 19.0550622, 47.4977204 ], [ 19.0547926, 47.4984171 ], [ 19.0548258, 47.4990308 ], [ 19.0548215, 47.4991884 ], [ 19.0548448, 47.4995112 ], [ 19.0548675, 47.5004222 ], [ 19.0548849, 47.5010465 ], [ 19.0548916, 47.5013888 ], [ 19.0549004, 47.5023019 ], [ 19.0549076, 47.5026334 ], [ 19.0549121, 47.5028198 ], [ 19.0549404, 47.5035411 ], [ 19.0549485, 47.5037854 ], [ 19.0549736, 47.504741 ], [ 19.0550055, 47.5059516 ], [ 19.0550171, 47.5064442 ], [ 19.0550192, 47.5066136 ], [ 19.0550258, 47.5068087 ], [ 19.055036, 47.5070988 ], [ 19.0550482, 47.507862 ], [ 19.0550517, 47.508248 ], [ 19.0555187, 47.5101461 ], [ 19.0556695, 47.5103463 ], [ 19.0557078, 47.5103873 ], [ 19.0558421, 47.5105407 ], [ 19.0559978, 47.5107185 ], [ 19.0560107, 47.5107341 ], [ 19.0571672, 47.5124189 ], [ 19.0580139, 47.5135409 ], [ 19.0588174, 47.5146238 ], [ 19.0592659, 47.5152103 ], [ 19.0595925, 47.5157544 ], [ 19.0601503, 47.5172988 ], [ 19.0602954, 47.517662 ], [ 19.0603178, 47.5177191 ], [ 19.0605287, 47.5182478 ], [ 19.0607518, 47.518771 ], [ 19.0611047, 47.5195759 ], [ 19.0615454, 47.5204591 ], [ 19.0618813, 47.5212486 ], [ 19.0622069, 47.5220173 ], [ 19.0625897, 47.5229196 ], [ 19.0629297, 47.5237209 ], [ 19.0631329, 47.524198 ], [ 19.0632884, 47.5245619 ], [ 19.0634974, 47.5250334 ], [ 19.0636639, 47.5254056 ], [ 19.0640154, 47.5262407 ], [ 19.0644918, 47.5273761 ], [ 19.0650108, 47.5285939 ], [ 19.0654125, 47.5295303 ], [ 19.0654335, 47.529576 ], [ 19.0680913, 47.5357411 ], [ 19.068436, 47.5366058 ], [ 19.0691145, 47.5381081 ], [ 19.069693, 47.5394551 ], [ 19.0698395, 47.5397832 ], [ 19.0699639, 47.5400634 ], [ 19.0707449, 47.5421737 ], [ 19.0708227, 47.5424343 ], [ 19.0714498, 47.5440883 ], [ 19.0720231, 47.5454968 ], [ 19.0720828, 47.5456611 ], [ 19.0722752, 47.5461533 ], [ 19.0724155, 47.5465122 ], [ 19.0731534, 47.5484171 ], [ 19.0737741, 47.5503167 ] ] } }
]
}
